{"type":"FeatureCollection","features":[{"type":"Feature","geometry":{"type":"Point","coordinates":[139.097834,35.98578]},"properties":{"@id":"way/229970786","access":"yes","amenity":"toilets","building":"yes","fee":"no","toilets:disposal":"flush","@geometry":"center"},"id":"way/229970786"},{"type":"Feature","geometry":{"type":"Point","coordinates":[139.135901,35.976853]},"properties":{"@id":"way/626856539","amenity":"toilets","building":"yes","@geometry":"center"},"id":"way/626856539"},{"type":"Feature","geometry":{"type":"Point","coordinates":[139.136718,35.97676]},"properties":{"@id":"way/686114446","amenity":"toilets","building":"yes","changing_table":"yes","check_date":"2025-04-19","toilets:disposal":"flush","wheelchair":"yes","@geometry":"center"},"id":"way/686114446"},{"type":"Feature","geometry":{"type":"Point","coordinates":[139.106441,35.989122]},"properties":{"@id":"way/1079688189","amenity":"toilets","building":"yes","@geometry":"center"},"id":"way/1079688189"},{"type":"Feature","geometry":{"type":"Point","coordinates":[139.107337,35.993415]},"properties":{"@id":"node/2375877411","amenity":"toilets"},"id":"node/2375877411"},{"type":"Feature","geometry":{"type":"Point","coordinates":[139.134334,35.977514]},"properties":{"@id":"node/2951827350","amenity":"toilets"},"id":"node/2951827350"},{"type":"Feature","geometry":{"type":"Point","coordinates":[139.102527,35.986763]},"properties":{"@id":"node/6387436985","amenity":"toilets","opening_hours":"24/7","wheelchair":"no"},"id":"node/6387436985"},{"type":"Feature","geometry":{"type":"Point","coordinates":[139.156934,35.98962]},"properties":{"@id":"node/6398657815","amenity":"toilets"},"id":"node/6398657815"},{"type":"Feature","geometry":{"type":"Point","coordinates":[139.104916,35.987557]},"properties":{"@id":"node/6565212479","amenity":"toilets","opening_hours":"24/7","toilets:disposal":"flush","unisex":"yes","wheelchair":"yes"},"id":"node/6565212479"},{"type":"Feature","geometry":{"type":"Point","coordinates":[139.106354,35.994591]},"properties":{"@id":"node/6748911185","amenity":"toilets"},"id":"node/6748911185"},{"type":"Feature","geometry":{"type":"Point","coordinates":[139.134628,35.983844]},"properties":{"@id":"node/7269753835","access":"yes","amenity":"toilets","changing_table":"no","unisex":"yes"},"id":"node/7269753835"},{"type":"Feature","geometry":{"type":"Point","coordinates":[139.102586,35.98693]},"properties":{"@id":"node/9890974929","amenity":"toilets","opening_hours":"24/7"},"id":"node/9890974929"},{"type":"Feature","geometry":{"type":"Point","coordinates":[139.106441,35.989121]},"properties":{"@id":"node/9896819269","access":"yes","amenity":"toilets"},"id":"node/9896819269"},{"type":"Feature","geometry":{"type":"Point","coordinates":[139.136605,35.988339]},"properties":{"@id":"node/11577176252","amenity":"toilets","toilets:disposal":"flush"},"id":"node/11577176252"},{"type":"Feature","geometry":{"type":"Point","coordinates":[139.157573,35.990989]},"properties":{"@id":"node/12767781724","access":"yes","amenity":"toilets","changing_table":"yes","check_date":"2025-04-19","fee":"no","toilets:disposal":"flush","wheelchair":"yes"},"id":"node/12767781724"},{"type":"Feature","geometry":{"type":"Point","coordinates":[139.114617,35.98369]},"properties":{"@id":"node/13809879628","amenity":"toilets"},"id":"node/13809879628"},{"type":"Feature","geometry":{"type":"Point","coordinates":[139.102949,35.984048]},"properties":{"@id":"node/13809908738","amenity":"toilets"},"id":"node/13809908738"},{"type":"Feature","geometry":{"type":"Point","coordinates":[139.108652,35.972691]},"properties":{"@id":"node/13809942622","amenity":"toilets"},"id":"node/13809942622"},{"type":"Feature","geometry":{"type":"Point","coordinates":[139.094785,35.99087]},"properties":{"@id":"node/14065511001","amenity":"toilets","opening_hours":"24/7"},"id":"node/14065511001"}]}
